[{"OBJECT_NAME":"AEROCUBE 4.5A","OBJECT_ID":"2012-048K","EPOCH":"2026-03-09T23:30:53.651232","MEAN_MOTION":15.62097136,"ECCENTRICITY":0.00407508,"INCLINATION":64.6384,"RA_OF_ASC_NODE":19.0525,"ARG_OF_PERICENTER":211.9552,"MEAN_ANOMALY":147.9122,"EPHEMERIS_TYPE":0,"CLASSIFICATION_TYPE":"U","NORAD_CAT_ID":38767,"ELEMENT_SET_NO":999,"REV_AT_EPOCH":35703,"BSTAR":0.0010922172,"MEAN_MOTION_DOT":0.00101362,"MEAN_MOTION_DDOT":0},{"OBJECT_NAME":"STARLINK-11154 [DTC]","OBJECT_ID":"2024-164K","EPOCH":"2026-03-09T22:22:14.057760","MEAN_MOTION":15.69695265,"ECCENTRICITY":9.502e-5,"INCLINATION":53.1593,"RA_OF_ASC_NODE":310.316,"ARG_OF_PERICENTER":63.263,"MEAN_ANOMALY":296.8485,"EPHEMERIS_TYPE":0,"CLASSIFICATION_TYPE":"U","NORAD_CAT_ID":61059,"ELEMENT_SET_NO":999,"REV_AT_EPOCH":8545,"BSTAR":3.98823e-6,"MEAN_MOTION_DOT":-1.05e-6,"MEAN_MOTION_DDOT":0}]
